NORAD_CAT_ID,OBJECT_NAME,OBJECT_TYPE,EPOCH,MEAN_MOTION,ECCENTRICITY,INCLINATION,RA_OF_ASC_NODE,ARG_OF_PERICENTER,MEAN_ANOMALY,BSTAR,MEAN_MOTION_DOT,MEAN_MOTION_DDOT,TLE_LINE0,TLE_LINE1,TLE_LINE2,SEMIMAJOR_AXIS,PERIOD,APOGEE,PERIGEE,DECAYED
49442.0,STARLINK-3098,PAYLOAD,2024-03-31 10:41:31,15.0883543,0.0001481,53.2157,148.552,87.6672,272.449,0.00024893,3.675e-05,0.0,0 STARLINK-3098,1 49442U 21104AL  24091.44549787  .00003675  00000-0  24893-3 0  9995,2 49442  53.2157 148.5520 0001481  87.6672 272.4490 15.08835430133072,6917.894,95.438,540.784,538.735,0.0
49442.0,STARLINK-3098,PAYLOAD,2024-03-31 20:13:49,15.08840562,0.0001507,53.2166,146.7681,89.3421,270.7744,0.00018206,2.611e-05,0.0,0 STARLINK-3098,1 49442U 21104AL  24091.84293496  .00002611  00000-0  18206-3 0  9992,2 49442  53.2166 146.7681 0001507  89.3421 270.7744 15.08840562132052,6917.879,95.438,540.786,538.701,0.0
49442.0,STARLINK-3098,PAYLOAD,2024-04-01 10:32:17,15.08845227,0.0001465,53.2171,144.094,92.8871,267.2289,0.00022089,3.23e-05,0.0,0 STARLINK-3098,1 49442U 21104AL  24092.43908807  .00003230  00000-0  22089-3 0  9999,2 49442  53.2171 144.0940 0001465  92.8871 267.2289 15.08845227133226,6917.864,95.437,540.743,538.716,0.0
49442.0,STARLINK-3098,PAYLOAD,2024-04-01 20:04:35,15.08856596,0.0001535,53.2177,142.3097,93.1557,266.9611,0.00025587,3.788e-05,0.0,0 STARLINK-3098,1 49442U 21104AL  24092.83651846  .00003788  00000-0  25587-3 0  9995,2 49442  53.2177 142.3097 0001535  93.1557 266.9611 15.08856596133281,6917.83,95.437,540.757,538.633,0.0
49442.0,STARLINK-3098,PAYLOAD,2024-04-02 04:01:32,15.08827776,0.0001518,53.2161,140.8216,101.366,258.7502,0.00018105,2.594e-05,0.0,0 STARLINK-3098,1 49442U 21104AL  24093.16773910  .00002594  00000-0  18105-3 0  9991,2 49442  53.2161 140.8216 0001518 101.3660 258.7502 15.08827776133330,6917.918,95.438,540.833,538.733,0.0
49442.0,STARLINK-3098,PAYLOAD,2024-04-02 10:23:05,15.088253,0.0001641,53.2172,139.634,105.8703,254.247,0.00028518,4.252e-05,0.0,0 STARLINK-3098,1 49442U 21104AL  24093.43270284  .00004252  00000-0  28518-3 0  9999,2 49442  53.2172 139.6340 0001641 105.8703 254.2470 15.08825300132290,6917.925,95.438,540.926,538.655,0.0
49442.0,STARLINK-3098,PAYLOAD,2024-04-02 19:55:23,15.08848176,0.0001499,53.2169,137.8494,95.5329,264.5834,8.8683e-05,1.124e-05,0.0,0 STARLINK-3098,1 49442U 21104AL  24093.83013166  .00001124  00000-0  88683-4 0  9992,2 49442  53.2169 137.8494 0001499  95.5329 264.5834 15.08848176133437,6917.855,95.437,540.757,538.683,0.0
49442.0,STARLINK-3098,PAYLOAD,2024-04-03 11:49:14,15.08843174,0.000164,53.216,134.8751,99.9508,260.167,9.7381e-06,-1.33e-06,0.0,0 STARLINK-3098,1 49442U 21104AL  24094.49252903 -.00000133  00000-0  97381-5 0  9995,2 49442  53.2160 134.8751 0001640  99.9508 260.1670 15.08843174132450,6917.871,95.437,540.87,538.601,0.0
49442.0,STARLINK-3098,PAYLOAD,2024-04-03 19:46:10,15.08840065,0.0001678,53.2161,133.3885,97.373,262.7453,0.00027714,4.125e-05,0.0,0 STARLINK-3098,1 49442U 21104AL  24094.82373086  .00004125  00000-0  27714-3 0  9993,2 49442  53.2161 133.3885 0001678  97.3730 262.7453 15.08840065133581,6917.88,95.438,540.906,538.584,0.0
49442.0,STARLINK-3098,PAYLOAD,2024-04-04 11:40:01,15.08841547,0.0001468,53.2164,130.4142,93.2932,266.8228,0.00010095,1.319e-05,0.0,0 STARLINK-3098,1 49442U 21104AL  24095.48613009  .00001319  00000-0  10095-3 0  9994,2 49442  53.2164 130.4142 0001468  93.2932 266.8228 15.08841547132607,6917.876,95.437,540.756,538.725,0.0
49442.0,STARLINK-3098,PAYLOAD,2024-04-04 19:36:56,15.0884807,0.0001415,53.2158,128.9267,92.9655,267.1499,9.5102e-05,1.226e-05,0.0,0 STARLINK-3098,1 49442U 21104AL  24095.81732459  .00001226  00000-0  95102-4 0  9992,2 49442  53.2158 128.9267 0001415  92.9655 267.1499 15.08848070132657,6917.856,95.437,540.7,538.742,0.0
49442.0,STARLINK-3098,PAYLOAD,2024-04-05 01:58:29,15.08845288,0.0001401,53.2157,127.7368,94.261,265.8542,0.00014608,2.038e-05,0.0,0 STARLINK-3098,1 49442U 21104AL  24096.08228440  .00002038  00000-0  14608-3 0  9995,2 49442  53.2157 127.7368 0001401  94.2610 265.8542 15.08845288133772,6917.864,95.437,540.698,538.76,0.0
49442.0,STARLINK-3098,PAYLOAD,2024-04-05 08:20:01,15.08847606,0.0001399,53.2161,126.5468,95.9777,264.1375,9.3575e-05,1.202e-05,0.0,0 STARLINK-3098,1 49442U 21104AL  24096.34724370  .00001202  00000-0  93575-4 0  9990,2 49442  53.2161 126.5468 0001399  95.9777 264.1375 15.08847606132730,6917.857,95.437,540.69,538.754,0.0
49442.0,STARLINK-3098,PAYLOAD,2024-04-05 19:27:43,15.08850143,0.0001397,53.2161,124.4647,96.29,263.8251,9.6453e-05,1.248e-05,0.0,0 STARLINK-3098,1 49442U 21104AL  24096.81091912  .00001248  00000-0  96453-4 0  9999,2 49442  53.2161 124.4647 0001397  96.2900 263.8251 15.08850143132803,6917.849,95.437,540.681,538.748,0.0
49442.0,STARLINK-3098,PAYLOAD,2024-04-06 08:10:49,15.0883085,0.0001336,53.2164,122.0863,93.4784,266.6361,2.5693e-06,-2.47e-06,0.0,0 STARLINK-3098,1 49442U 21104AL  24097.34085467 -.00000247  00000-0  25693-5 0  9994,2 49442  53.2164 122.0863 0001336  93.4784 266.6361 15.08830850133966,6917.908,95.438,540.698,538.849,0.0
49442.0,STARLINK-3098,PAYLOAD,2024-04-07 08:01:36,15.08835973,0.0001273,53.2162,117.627,84.5499,275.5638,8.8103e-06,-1.48e-06,0.0,0 STARLINK-3098,1 49442U 21104AL  24098.33445228 -.00000148  00000-0  88103-5 0  9994,2 49442  53.2162 117.6270 0001273  84.5499 275.5638 15.08835973133035,6917.893,95.438,540.638,538.877,0.0
49442.0,STARLINK-3098,PAYLOAD,2024-04-08 04:41:39,15.08818764,0.0001353,53.2163,113.7608,88.2885,271.8262,4.7924e-05,4.74e-06,0.0,0 STARLINK-3098,1 49442U 21104AL  24099.19559194  .00000474  00000-0  47924-4 0  9993,2 49442  53.2163 113.7608 0001353  88.2885 271.8262 15.08818764134242,6917.945,95.439,540.746,538.874,0.0
49442.0,STARLINK-3098,PAYLOAD,2024-04-08 11:03:11,15.08839716,0.0001443,53.2157,112.5715,98.1881,261.9275,0.00039397,5.988e-05,0.0,0 STARLINK-3098,1 49442U 21104AL  24099.46054648  .00005988  00000-0  39397-3 0  9996,2 49442  53.2157 112.5715 0001443  98.1881 261.9275 15.08839716134285,6917.881,95.438,540.745,538.748,0.0
49442.0,STARLINK-3098,PAYLOAD,2024-04-08 17:24:43,15.08845726,0.0001434,53.2159,111.3825,100.8173,259.2981,0.00044967,6.877e-05,0.0,0 STARLINK-3098,1 49442U 21104AL  24099.72550507  .00006877  00000-0  44967-3 0  9997,2 49442  53.2159 111.3825 0001434 100.8173 259.2981 15.08845726133248,6917.863,95.437,540.72,538.736,0.0
49442.0,STARLINK-3098,PAYLOAD,2024-04-09 09:18:34,15.08866776,0.0001468,53.2154,108.4081,107.0191,253.0962,0.00054717,8.437e-05,0.0,0 STARLINK-3098,1 49442U 21104AL  24100.38789570  .00008437  00000-0  54717-3 0  9994,2 49442  53.2154 108.4081 0001468 107.0191 253.0962 15.08866776134420,6917.799,95.436,540.679,538.648,0.0
49442.0,STARLINK-3098,PAYLOAD,2024-04-09 17:15:29,15.08874062,0.000145,53.2154,106.921,105.97,254.1452,0.00061718,9.557e-05,0.0,0 STARLINK-3098,1 49442U 21104AL  24100.71908889  .00009557  00000-0  61718-3 0  9990,2 49442  53.2154 106.9210 0001450 105.9700 254.1452 15.08874062133399,6917.776,95.435,540.644,538.638,0.0
49442.0,STARLINK-3098,PAYLOAD,2024-04-10 04:23:11,15.08854723,0.000154,53.2154,104.8393,98.6855,261.4311,3.9597e-05,3.42e-06,0.0,0 STARLINK-3098,1 49442U 21104AL  24101.18276937  .00000342  00000-0  39597-4 0  9998,2 49442  53.2154 104.8393 0001540  98.6855 261.4311 15.08854723134542,6917.835,95.437,540.766,538.635,0.0
49442.0,STARLINK-3098,PAYLOAD,2024-04-10 09:09:20,15.08854074,0.0001399,53.2152,103.9471,100.8553,259.2596,7.8205e-05,9.57e-06,0.0,0 STARLINK-3098,1 49442U 21104AL  24101.38148790  .00000957  00000-0  78205-4 0  9996,2 49442  53.2152 103.9471 0001399 100.8553 259.2596 15.08854074133492,6917.837,95.437,540.67,538.735,0.0
49442.0,STARLINK-3098,PAYLOAD,2024-04-10 23:27:48,15.08855844,0.0001452,53.2155,101.2705,95.1579,264.9579,0.00032121,4.83e-05,0.0,0 STARLINK-3098,1 49442U 21104AL  24101.97764454  .00004830  00000-0  32121-3 0  9992,2 49442  53.2155 101.2705 0001452  95.1579 264.9579 15.08855844133580,6917.832,95.437,540.701,538.692,0.0
49442.0,STARLINK-3098,PAYLOAD,2024-04-11 04:13:58,15.08840186,0.0002079,53.216,100.3783,91.0952,269.0278,2.4132e-05,9.6e-07,0.0,0 STARLINK-3098,1 49442U 21104AL  24102.17637077  .00000096  00000-0  24132-4 0  9999,2 49442  53.2160 100.3783 0002079  91.0952 269.0278 15.08840186134696,6917.88,95.438,541.183,538.307,0.0
49442.0,STARLINK-3098,PAYLOAD,2024-04-11 09:00:07,15.08841528,0.0001599,53.2169,99.487,94.5258,265.5917,-0.00012484,-2.274e-05,0.0,0 STARLINK-3098,1 49442U 21104AL  24102.37509231 -.00002274  00000-0 -12484-3 0  9999,2 49442  53.2169  99.4870 0001599  94.5258 265.5917 15.08841528133649,6917.876,95.437,540.847,538.635,0.0
49442.0,STARLINK-3098,PAYLOAD,2024-04-11 16:57:03,15.08846861,0.0001592,53.2171,97.9992,89.638,270.4795,3.1543e-06,-2.38e-06,0.0,0 STARLINK-3098,1 49442U 21104AL  24102.70628936 -.00000238  00000-0  31543-5 0  9996,2 49442  53.2171  97.9992 0001592  89.6380 270.4795 15.08846861133693,6917.859,95.437,540.826,538.623,0.0
49442.0,STARLINK-3098,PAYLOAD,2024-04-12 08:50:55,15.08841359,0.0001495,53.2166,95.0244,91.7543,268.362,0.00010655,1.408e-05,0.0,0 STARLINK-3098,1 49442U 21104AL  24103.36869284  .00001408  00000-0  10655-3 0  9990,2 49442  53.2166  95.0244 0001495  91.7543 268.3620 15.08841359134874,6917.876,95.437,540.775,538.707,0.0
49442.0,STARLINK-3098,PAYLOAD,2024-04-13 08:41:42,15.08838029,0.0001441,53.2179,90.5655,87.1743,272.9414,9.6184e-05,1.243e-05,0.0,0 STARLINK-3098,1 49442U 21104AL  24104.36229626  .00001243  00000-0  96184-4 0  9990,2 49442  53.2179  90.5655 0001441  87.1743 272.9414 15.08838029135026,6917.886,95.438,540.748,538.755,0.0
49442.0,STARLINK-3098,PAYLOAD,2024-04-14 08:32:29,15.08841428,0.0001328,53.2181,86.105,91.9472,268.1673,9.0341e-05,1.15e-05,0.0,0 STARLINK-3098,1 49442U 21104AL  24105.35589665  .00001150  00000-0  90341-4 0  9998,2 49442  53.2181  86.1050 0001328  91.9472 268.1673 15.08841428134092,6917.876,95.437,540.66,538.822,0.0
